{
  "norad_id": 48291,
  "name": "STARLINK-2555",
  "history": [
    {
      "epoch": "2026-03-28T21:58:54.800256Z",
      "apogee_km": 476.2248236972073,
      "perigee_km": 474.035753059954,
      "latitude_deg": 2.412902158426541e-05,
      "longitude_deg": -167.54371645826362,
      "height_km": 476.06242616198926,
      "semi_major_axis_km": 6853.267288378581,
      "eccentricity": 0.00015971,
      "inclination_deg": 53.1626,
      "raan_deg": 348.5141,
      "arg_perigee_deg": 91.7922,
      "mean_anomaly_deg": 268.3262,
      "mean_motion_rev_day": 15.30228395
    },
    {
      "epoch": "2026-03-28T23:32:57.812352Z",
      "apogee_km": 476.02469971904975,
      "perigee_km": 474.2113284423249,
      "latitude_deg": 6.929591985355886e-05,
      "longitude_deg": 168.57549168994413,
      "height_km": 475.83161608065427,
      "semi_major_axis_km": 6853.255014080687,
      "eccentricity": 0.0001323,
      "inclination_deg": 53.162,
      "raan_deg": 348.2102,
      "arg_perigee_deg": 78.2487,
      "mean_anomaly_deg": 281.8663,
      "mean_motion_rev_day": 15.30232506
    },
    {
      "epoch": "2026-03-30T00:37:49.131840Z",
      "apogee_km": 476.0579314825918,
      "perigee_km": 474.4336797576607,
      "latitude_deg": -9.70591962255286e-06,
      "longitude_deg": 146.47766529661126,
      "height_km": 476.0823726655506,
      "semi_major_axis_km": 6853.382805620126,
      "eccentricity": 0.0001185,
      "inclination_deg": 53.1618,
      "raan_deg": 343.3563,
      "arg_perigee_deg": 85.6343,
      "mean_anomaly_deg": 274.4793,
      "mean_motion_rev_day": 15.30189706
    },
    {
      "epoch": "2026-03-30T00:37:49.132704Z",
      "apogee_km": 476.0576573472799,
      "perigee_km": 474.43395389297257,
      "latitude_deg": -6.0075629758779775e-06,
      "longitude_deg": 146.4776644419836,
      "height_km": 476.08239353018445,
      "semi_major_axis_km": 6853.382805620126,
      "eccentricity": 0.00011846,
      "inclination_deg": 53.1618,
      "raan_deg": 343.3563,
      "arg_perigee_deg": 85.6343,
      "mean_anomaly_deg": 274.4793,
      "mean_motion_rev_day": 15.30189706
    },
    {
      "epoch": "2026-03-30T10:02:08.741472Z",
      "apogee_km": 476.12177262687146,
      "perigee_km": 474.3784080188352,
      "latitude_deg": 4.1278702923791155e-05,
      "longitude_deg": 3.1894289447849467,
      "height_km": 476.1454748390801,
      "semi_major_axis_km": 6853.3870903228535,
      "eccentricity": 0.00012719,
      "inclination_deg": 53.1619,
      "raan_deg": 341.536,
      "arg_perigee_deg": 89.8106,
      "mean_anomaly_deg": 270.3041,
      "mean_motion_rev_day": 15.30188271
    },
    {
      "epoch": "2026-03-30T21:00:30.976128Z",
      "apogee_km": 476.0777340715413,
      "perigee_km": 474.32259442377654,
      "latitude_deg": -6.81803849628975e-05,
      "longitude_deg": -163.97743512221527,
      "height_km": 476.0189661558183,
      "semi_major_axis_km": 6853.337164247659,
      "eccentricity": 0.00012805,
      "inclination_deg": 53.1609,
      "raan_deg": 339.4125,
      "arg_perigee_deg": 84.8105,
      "mean_anomaly_deg": 275.3041,
      "mean_motion_rev_day": 15.30204992
    },
    {
      "epoch": "2026-03-31T09:32:56.571072Z",
      "apogee_km": 476.1094315732935,
      "perigee_km": 474.3560654568337,
      "latitude_deg": -2.065281881993586e-05,
      "longitude_deg": 4.973837693680582,
      "height_km": 476.1556300604077,
      "semi_major_axis_km": 6853.369748515063,
      "eccentricity": 0.00012792,
      "inclination_deg": 53.1604,
      "raan_deg": 336.9854,
      "arg_perigee_deg": 91.6194,
      "mean_anomaly_deg": 268.4953,
      "mean_motion_rev_day": 15.30194079
    },
    {
      "epoch": "2026-03-31T23:39:25.992000Z",
      "apogee_km": 476.0894197151629,
      "perigee_km": 474.4500848200196,
      "latitude_deg": -5.948441874931085e-07,
      "longitude_deg": 150.04136420715318,
      "height_km": 476.255128870755,
      "semi_major_axis_km": 6853.4067522675905,
      "eccentricity": 0.0001196,
      "inclination_deg": 53.1599,
      "raan_deg": 334.2549,
      "arg_perigee_deg": 96.1077,
      "mean_anomaly_deg": 264.006,
      "mean_motion_rev_day": 15.30181686
    },
    {
      "epoch": "2026-04-02T08:34:33.601440Z",
      "apogee_km": 476.1416910510152,
      "perigee_km": 474.31102063140315,
      "latitude_deg": -1.1303453643335021e-05,
      "longitude_deg": 8.537125458622127,
      "height_km": 476.258251648801,
      "semi_major_axis_km": 6853.363355841208,
      "eccentricity": 0.00013356,
      "inclination_deg": 53.159,
      "raan_deg": 327.8843,
      "arg_perigee_deg": 98.4181,
      "mean_anomaly_deg": 261.6971,
      "mean_motion_rev_day": 15.3019622
    },
    {
      "epoch": "2026-04-02T22:41:02.240448Z",
      "apogee_km": 476.34589521207636,
      "perigee_km": 474.0670214453121,
      "latitude_deg": 5.34529253257213e-05,
      "longitude_deg": 153.60575178208748,
      "height_km": 475.9958173141615,
      "semi_major_axis_km": 6853.3434583286935,
      "eccentricity": 0.00016626,
      "inclination_deg": 53.1586,
      "raan_deg": 325.1516,
      "arg_perigee_deg": 84.56,
      "mean_anomaly_deg": 275.5591,
      "mean_motion_rev_day": 15.30202884
    },
    {
      "epoch": "2026-04-03T20:37:46.625088Z",
      "apogee_km": 476.07501426370345,
      "perigee_km": 474.369898430964,
      "latitude_deg": -6.596441127131124e-05,
      "longitude_deg": 179.27305045104907,
      "height_km": 476.1882370332376,
      "semi_major_axis_km": 6853.359456347333,
      "eccentricity": 0.0001244,
      "inclination_deg": 53.1586,
      "raan_deg": 320.9052,
      "arg_perigee_deg": 94.5618,
      "mean_anomaly_deg": 265.5524,
      "mean_motion_rev_day": 15.30197526
    },
    {
      "epoch": "2026-04-03T22:11:49.898112Z",
      "apogee_km": 475.8630178798967,
      "perigee_km": 474.60035323327065,
      "latitude_deg": 3.513367963782444e-05,
      "longitude_deg": 155.3908101206671,
      "height_km": 476.2030437621907,
      "semi_major_axis_km": 6853.368685556584,
      "eccentricity": 9.212e-05,
      "inclination_deg": 53.158,
      "raan_deg": 320.6009,
      "arg_perigee_deg": 96.6425,
      "mean_anomaly_deg": 263.4681,
      "mean_motion_rev_day": 15.30194435
    },
    {
      "epoch": "2026-04-05T14:57:13.444992Z",
      "apogee_km": 476.3209134571962,
      "perigee_km": 474.192112364216,
      "latitude_deg": 5.190017226215709e-06,
      "longitude_deg": -105.5131379168434,
      "height_km": 476.5513243206855,
      "semi_major_axis_km": 6853.393512910706,
      "eccentricity": 0.00015531,
      "inclination_deg": 53.1593,
      "raan_deg": 312.7189,
      "arg_perigee_deg": 111.9031,
      "mean_anomaly_deg": 248.2135,
      "mean_motion_rev_day": 15.3018612
    },
    {
      "epoch": "2026-04-05T19:39:23.363424Z",
      "apogee_km": 476.2583030890537,
      "perigee_km": 474.2735576004261,
      "latitude_deg": 1.1464900600830157e-05,
      "longitude_deg": -177.1581956828956,
      "height_km": 476.53267338671697,
      "semi_major_axis_km": 6853.40293034474,
      "eccentricity": 0.0001448,
      "inclination_deg": 53.1601,
      "raan_deg": 311.8083,
      "arg_perigee_deg": 111.8149,
      "mean_anomaly_deg": 248.3006,
      "mean_motion_rev_day": 15.30182966
    },
    {
      "epoch": "2026-04-06T00:21:32.992416Z",
      "apogee_km": 476.12920795223454,
      "perigee_km": 474.39639434651235,
      "latitude_deg": 3.574386538039621e-05,
      "longitude_deg": 111.19266925795041,
      "height_km": 476.3057581414692,
      "semi_major_axis_km": 6853.399801149373,
      "eccentricity": 0.00012642,
      "inclination_deg": 53.1586,
      "raan_deg": 310.8924,
      "arg_perigee_deg": 99.6352,
      "mean_anomaly_deg": 260.4792,
      "mean_motion_rev_day": 15.30184014
    },
    {
      "epoch": "2026-04-06T20:44:12.614496Z",
      "apogee_km": 475.9334153829459,
      "perigee_km": 474.38977840698226,
      "latitude_deg": 3.6514935382876376e-05,
      "longitude_deg": 160.75019444096603,
      "height_km": 476.16672235723706,
      "semi_major_axis_km": 6853.298596894964,
      "eccentricity": 0.00011262,
      "inclination_deg": 53.1587,
      "raan_deg": 306.9519,
      "arg_perigee_deg": 97.9673,
      "mean_anomaly_deg": 262.1456,
      "mean_motion_rev_day": 15.30217909
    },
    {
      "epoch": "2026-04-07T20:15:01.649376Z",
      "apogee_km": 476.01575117086486,
      "perigee_km": 474.46003507012574,
      "latitude_deg": 4.928778073532791e-05,
      "longitude_deg": 162.52491905270062,
      "height_km": 476.19692680062843,
      "semi_major_axis_km": 6853.374893120495,
      "eccentricity": 0.0001135,
      "inclination_deg": 53.1594,
      "raan_deg": 302.3966,
      "arg_perigee_deg": 94.4864,
      "mean_anomaly_deg": 265.6267,
      "mean_motion_rev_day": 15.30192356
    },
    {
      "epoch": "2026-04-08T13:29:36.282336Z",
      "apogee_km": 476.1480405202292,
      "perigee_km": 474.2606303164539,
      "latitude_deg": -2.152100184214141e-05,
      "longitude_deg": -100.16368283886756,
      "height_km": 476.15794793096137,
      "semi_major_axis_km": 6853.341335418341,
      "eccentricity": 0.0001377,
      "inclination_deg": 53.1609,
      "raan_deg": 299.0605,
      "arg_perigee_deg": 93.3765,
      "mean_anomaly_deg": 266.7393,
      "mean_motion_rev_day": 15.30203595
    },
    {
      "epoch": "2026-04-09T20:50:41.119008Z",
      "apogee_km": 476.0180936286524,
      "perigee_km": 474.4993811332488,
      "latitude_deg": -5.48824735702801e-05,
      "longitude_deg": 142.21018169888595,
      "height_km": 475.9473120999882,
      "semi_major_axis_km": 6853.39573738095,
      "eccentricity": 0.0001108,
      "inclination_deg": 53.1595,
      "raan_deg": 292.9921,
      "arg_perigee_deg": 73.9667,
      "mean_anomaly_deg": 286.1455,
      "mean_motion_rev_day": 15.30185375
    }
  ]
}